{
  "type": "FeatureCollection",
  "features": [
    {
      "type": "Feature",
      "properties": {
        "norad_id": 22675,
        "name": "COSMOS 2251",
        "group": "cosmos-2251-debris",
        "lat": -35.907901827076444,
        "lon": -57.9852551623041,
        "alt_km": 782.0449774392882,
        "timestamp": "2025-12-13T18:50:04.822586+00:00",
        "meta_object_name": "COSMOS 2251",
        "meta_object_id": "1993-036A",
        "meta_epoch": "2025-12-13T07:16:57.165888",
        "meta_mean_motion": 14.3320508,
        "meta_eccentricity": 0.00239807,
        "meta_inclination": 74.0396,
        "meta_ra_of_asc_node": 314.8534,
        "meta_arg_of_pericenter": 36.9399,
        "meta_mean_anomaly": 323.3398,
        "meta_ephemeris_type": 0,
        "meta_classification_type": "U",
        "meta_norad_cat_id": 22675,
        "meta_element_set_no": 999,
        "meta_rev_at_epoch": 69781,
        "meta_bstar": 8.7460729e-05,
        "meta_mean_motion_dot": 2.15e-06,
        "meta_mean_motion_ddot": 0,
        "tle_line1": "1 22675U 93036A   25347.30343942  .00000215  00000+0  87461-4 0  9999",
        "tle_line2": "2 22675  74.0396 314.8534 0023980  36.9399 323.3398 14.33205080697810"
      },
      "geometry": {
        "type": "Point",
        "coordinates": [
          -57.9852551623041,
          -35.907901827076444
        ]
      }
    },
    {
      "type": "Feature",
      "properties": {
        "norad_id": 33757,
        "name": "COSMOS 2251 DEB",
        "group": "cosmos-2251-debris",
        "lat": -0.7721071069384395,
        "lon": -38.518823513806346,
        "alt_km": 775.8698914799625,
        "timestamp": "2025-12-13T18:50:04.822610+00:00",
        "meta_object_name": "COSMOS 2251 DEB",
        "meta_object_id": "1993-036E",
        "meta_epoch": "2025-12-13T07:37:24.865824",
        "meta_mean_motion": 14.32581293,
        "meta_eccentricity": 0.0015275,
        "meta_inclination": 74.0369,
        "meta_ra_of_asc_node": 322.5546,
        "meta_arg_of_pericenter": 335.6998,
        "meta_mean_anomaly": 135.3837,
        "meta_ephemeris_type": 0,
        "meta_classification_type": "U",
        "meta_norad_cat_id": 33757,
        "meta_element_set_no": 999,
        "meta_rev_at_epoch": 88004,
        "meta_bstar": 7.649262e-05,
        "meta_mean_motion_dot": 1.82e-06,
        "meta_mean_motion_ddot": 0,
        "tle_line1": "1 33757U 93036E   25347.31764891  .00000182  00000+0  76493-4 0  9999",
        "tle_line2": "2 33757  74.0369 322.5546 0015275 335.6998 135.3837 14.32581293880044"
      },
      "geometry": {
        "type": "Point",
        "coordinates": [
          -38.518823513806346,
          -0.7721071069384395
        ]
      }
    },
    {
      "type": "Feature",
      "properties": {
        "norad_id": 33758,
        "name": "COSMOS 2251 DEB",
        "group": "cosmos-2251-debris",
        "lat": 15.607006760818777,
        "lon": -142.3490795605466,
        "alt_km": 722.1948499873843,
        "timestamp": "2025-12-13T18:50:04.822625+00:00",
        "meta_object_name": "COSMOS 2251 DEB",
        "meta_object_id": "1993-036F",
        "meta_epoch": "2025-12-13T02:46:55.013664",
        "meta_mean_motion": 14.51599374,
        "meta_eccentricity": 0.00173827,
        "meta_inclination": 74.028,
        "meta_ra_of_asc_node": 214.3215,
        "meta_arg_of_pericenter": 281.2037,
        "meta_mean_anomaly": 201.0572,
        "meta_ephemeris_type": 0,
        "meta_classification_type": "U",
        "meta_norad_cat_id": 33758,
        "meta_element_set_no": 999,
        "meta_rev_at_epoch": 88310,
        "meta_bstar": 0.0011611278,
        "meta_mean_motion_dot": 4.635e-05,
        "meta_mean_motion_ddot": 0,
        "tle_line1": "1 33758U 93036F   25347.11591451  .00004635  00000+0  11611-2 0  9994",
        "tle_line2": "2 33758  74.0280 214.3215 0017382 281.2037 201.0572 14.51599374883106"
      },
      "geometry": {
        "type": "Point",
        "coordinates": [
          -142.3490795605466,
          15.607006760818777
        ]
      }
    },
    {
      "type": "Feature",
      "properties": {
        "norad_id": 33760,
        "name": "COSMOS 2251 DEB",
        "group": "cosmos-2251-debris",
        "lat": -70.08639569830194,
        "lon": 151.75855207640674,
        "alt_km": 786.7719286762422,
        "timestamp": "2025-12-13T18:50:04.822637+00:00",
        "meta_object_name": "COSMOS 2251 DEB",
        "meta_object_id": "1993-036H",
        "meta_epoch": "2025-12-13T06:28:57.899712",
        "meta_mean_motion": 14.35673492,
        "meta_eccentricity": 0.00198886,
        "meta_inclination": 74.0322,
        "meta_ra_of_asc_node": 280.4826,
        "meta_arg_of_pericenter": 18.6478,
        "meta_mean_anomaly": 100.5493,
        "meta_ephemeris_type": 0,
        "meta_classification_type": "U",
        "meta_norad_cat_id": 33760,
        "meta_element_set_no": 999,
        "meta_rev_at_epoch": 88132,
        "meta_bstar": 0.00018057112,
        "meta_mean_motion_dot": 4.96e-06,
        "meta_mean_motion_ddot": 0,
        "tle_line1": "1 33760U 93036H   25347.27011458  .00000496  00000+0  18057-3 0  9991",
        "tle_line2": "2 33760  74.0322 280.4826 0019888  18.6478 100.5493 14.35673492881325"
      },
      "geometry": {
        "type": "Point",
        "coordinates": [
          151.75855207640674,
          -70.08639569830194
        ]
      }
    },
    {
      "type": "Feature",
      "properties": {
        "norad_id": 33761,
        "name": "COSMOS 2251 DEB",
        "group": "cosmos-2251-debris",
        "lat": -31.206065760277856,
        "lon": 80.2096613539599,
        "alt_km": 763.4204374534702,
        "timestamp": "2025-12-13T18:50:04.822648+00:00",
        "meta_object_name": "COSMOS 2251 DEB",
        "meta_object_id": "1993-036J",
        "meta_epoch": "2025-12-13T05:06:15.692832",
        "meta_mean_motion": 14.42548092,
        "meta_eccentricity": 0.00230948,
        "meta_inclination": 74.0366,
        "meta_ra_of_asc_node": 251.2854,
        "meta_arg_of_pericenter": 331.5893,
        "meta_mean_anomaly": 151.3563,
        "meta_ephemeris_type": 0,
        "meta_classification_type": "U",
        "meta_norad_cat_id": 33761,
        "meta_element_set_no": 999,
        "meta_rev_at_epoch": 88241,
        "meta_bstar": 0.00072048925,
        "meta_mean_motion_dot": 2.372e-05,
        "meta_mean_motion_ddot": 0,
        "tle_line1": "1 33761U 93036J   25347.21268163  .00002372  00000+0  72049-3 0  9999",
        "tle_line2": "2 33761  74.0366 251.2854 0023094 331.5893 151.3563 14.42548092882411"
      },
      "geometry": {
        "type": "Point",
        "coordinates": [
          80.2096613539599,
          -31.206065760277856
        ]
      }
    },
    {
      "type": "Feature",
      "properties": {
        "norad_id": 33762,
        "name": "COSMOS 2251 DEB",
        "group": "cosmos-2251-debris",
        "lat": -8.30535010266817,
        "lon": 130.5102321218269,
        "alt_km": 793.8824594569169,
        "timestamp": "2025-12-13T18:50:04.822660+00:00",
        "meta_object_name": "COSMOS 2251 DEB",
        "meta_object_id": "1993-036K",
        "meta_epoch": "2025-12-13T06:44:37.032288",
        "meta_mean_motion": 14.33664092,
        "meta_eccentricity": 0.00150162,
        "meta_inclination": 74.0417,
        "meta_ra_of_asc_node": 309.0369,
        "meta_arg_of_pericenter": 10.3523,
        "meta_mean_anomaly": 99.0384,
        "meta_ephemeris_type": 0,
        "meta_classification_type": "U",
        "meta_norad_cat_id": 33762,
        "meta_element_set_no": 999,
        "meta_rev_at_epoch": 88055,
        "meta_bstar": 8.8884286e-05,
        "meta_mean_motion_dot": 2.21e-06,
        "meta_mean_motion_ddot": 0,
        "tle_line1": "1 33762U 93036K   25347.28098417  .00000221  00000+0  88884-4 0  9996",
        "tle_line2": "2 33762  74.0417 309.0369 0015016  10.3523  99.0384 14.33664092880550"
      },
      "geometry": {
        "type": "Point",
        "coordinates": [
          130.5102321218269,
          -8.30535010266817
        ]
      }
    },
    {
      "type": "Feature",
      "properties": {
        "norad_id": 33764,
        "name": "COSMOS 2251 DEB",
        "group": "cosmos-2251-debris",
        "lat": -9.196718010251344,
        "lon": -91.9291167014446,
        "alt_km": 770.8313921796598,
        "timestamp": "2025-12-13T18:50:04.822671+00:00",
        "meta_object_name": "COSMOS 2251 DEB",
        "meta_object_id": "1993-036M",
        "meta_epoch": "2025-12-13T06:03:43.439904",
        "meta_mean_motion": 14.3951291,
        "meta_eccentricity": 0.00239289,
        "meta_inclination": 74.0336,
        "meta_ra_of_asc_node": 271.71,
        "meta_arg_of_pericenter": 237.3542,
        "meta_mean_anomaly": 236.1029,
        "meta_ephemeris_type": 0,
        "meta_classification_type": "U",
        "meta_norad_cat_id": 33764,
        "meta_element_set_no": 999,
        "meta_rev_at_epoch": 88164,
        "meta_bstar": 0.00054191491,
        "meta_mean_motion_dot": 1.669e-05,
        "meta_mean_motion_ddot": 0,
        "tle_line1": "1 33764U 93036M   25347.25258611  .00001669  00000+0  54191-3 0  9999",
        "tle_line2": "2 33764  74.0336 271.7100 0023928 237.3542 236.1029 14.39512910881641"
      },
      "geometry": {
        "type": "Point",
        "coordinates": [
          -91.9291167014446,
          -9.196718010251344
        ]
      }
    }
  ]
}